NORAD_CAT_ID,OBJECT_NAME,OBJECT_TYPE,EPOCH,MEAN_MOTION,ECCENTRICITY,INCLINATION,RA_OF_ASC_NODE,ARG_OF_PERICENTER,MEAN_ANOMALY,BSTAR,MEAN_MOTION_DOT,MEAN_MOTION_DDOT,TLE_LINE0,TLE_LINE1,TLE_LINE2,SEMIMAJOR_AXIS,PERIOD,APOGEE,PERIGEE,DECAYED
49755.0,STARLINK-3210,PAYLOAD,2022-03-21 22:00:00,15.08848808,0.0002033,53.2165,172.9,33.7714,267.7034,-0.0019258,-0.00030815,0.0,0 STARLINK-3210,1 49755U 21115AH  22080.91667824 -.00030815  00000-0 -19258-2 0  9991,2 49755  53.2165 172.9000 0002033  33.7714 267.7034 15.08848808  3592,6917.853,95.437,541.125,538.312,0.0
49755.0,STARLINK-3210,PAYLOAD,2022-03-22 06:00:00,15.08836909,0.0001932,53.2167,171.4027,38.5015,274.5678,0.0016862,0.00026648,0.0,0 STARLINK-3210,1 49755U 21115AH  22081.25001157  .00026648  00000-0  16862-2 0  9995,2 49755  53.2167 171.4027 0001932  38.5015 274.5678 15.08836909 17988,6917.89,95.438,541.091,538.418,0.0
49755.0,STARLINK-3210,PAYLOAD,2022-03-22 14:00:01,15.08850498,0.0002139,53.2167,169.9081,33.8346,290.8354,-0.0015884,-0.00025487,0.0,0 STARLINK-3210,1 49755U 21115AH  22081.58334491 -.00025487  00000-0 -15884-2 0  9996,2 49755  53.2167 169.9081 0002139  33.8346 290.8354 15.08850498  3598,6917.848000000001,95.437,541.193,538.234,0.0
49755.0,STARLINK-3210,PAYLOAD,2022-03-22 20:00:01,15.08849308,0.0002077,53.2164,168.7853,31.6557,211.7159,-0.0020616,-0.00032958,0.0,0 STARLINK-3210,1 49755U 21115AH  22081.83334491 -.00032958  00000-0 -20616-2 0  9994,2 49755  53.2164 168.7853 0002077  31.6557 211.7159 15.08849308 18072,6917.852,95.437,541.154,538.28,0.0
49755.0,STARLINK-3210,PAYLOAD,2022-03-22 22:00:01,15.08843209,0.000201,53.2165,168.4107,31.9958,304.3394,-0.0017373,-0.00027834,0.0,0 STARLINK-3210,1 49755U 21115AH  22081.91668981 -.00027834  00000-0 -17373-2 0  9990,2 49755  53.2165 168.4107 0002010  31.9958 304.3394 15.08843209  3604,6917.871,95.437,541.126,538.345,0.0
49755.0,STARLINK-3210,PAYLOAD,2022-03-23 14:00:01,15.08843387,0.0002113,53.2167,165.419,31.678,327.7786,-0.0003713,-6.193e-05,0.0,0 STARLINK-3210,1 49755U 21115AH  22082.58334491 -.00006193  00000-0 -37130-3 0  9999,2 49755  53.2167 165.4190 0002113  31.6780 327.7786 15.08843387 18189,6917.87,95.437,541.197,538.273,0.0
49755.0,STARLINK-3210,PAYLOAD,2022-03-23 22:00:00,15.08844321,0.000196,53.2164,163.9214,30.5435,340.5130000000001,-0.0020878,-0.00033367,0.0,0 STARLINK-3210,1 49755U 21115AH  22082.91667824 -.00033367  00000-0 -20878-2 0  9998,2 49755  53.2164 163.9214 0001960  30.5435 340.5130 15.08844321  3617,6917.8669999999975,95.437,541.0880000000002,538.376,0.0
49755.0,STARLINK-3210,PAYLOAD,2022-03-24 14:00:01,15.08826681,0.0002089,53.2166,160.93,30.6713,3.5628,0.0016063,0.0002536,0.0,0 STARLINK-3210,1 49755U 21115AH  22083.58334491  .00025360  00000-0  16063-2 0  9996,2 49755  53.2166 160.9300 0002089  30.6713   3.5628 15.08826681  3588,6917.920999999999,95.438,541.231,538.341,0.0
49755.0,STARLINK-3210,PAYLOAD,2022-03-24 22:00:00,15.08860764,0.0001996,53.2163,159.4323,33.056,12.7701,-0.0037076,-0.00058848,0.0,0 STARLINK-3210,1 49755U 21115AH  22083.91667824 -.00058848  00000-0 -37076-2 0  9998,2 49755  53.2163 159.4323 0001996  33.0560  12.7701 15.08860764  3603,6917.816999999999,95.436,541.063,538.3009999999998,0.0
49755.0,STARLINK-3210,PAYLOAD,2022-03-25 00:00:02,15.08826684,0.0001908,53.2163,159.0578,33.8533,104.9458,-6.795899999999999e-05,-1.369e-05,0.0,0 STARLINK-3210,1 49755U 21115AH  22084.00002315 -.00001369  00000-0 -67959-4 0  9998,2 49755  53.2163 159.0578 0001908  33.8533 104.9458 15.08826684 18390,6917.920999999999,95.438,541.106,538.466,0.0
49755.0,STARLINK-3210,PAYLOAD,2022-03-25 14:00:01,15.08815428,0.0002153,53.2164,156.4411,33.6603,35.3464,0.0019569,0.00030973,0.0,0 STARLINK-3210,1 49755U 21115AH  22084.58334491  .00030973  00000-0  19569-2 0  9997,2 49755  53.2164 156.4411 0002153  33.6603  35.3464 15.08815428  3591,6917.955,95.439,541.31,538.331,0.0
49755.0,STARLINK-3210,PAYLOAD,2022-03-25 22:00:01,15.08852492,0.0001994,53.2161,154.9432,34.3618,46.2913,-0.0035293,-0.00056041,0.0,0 STARLINK-3210,1 49755U 21115AH  22084.91668981 -.00056041  00000-0 -35293-2 0  9996,2 49755  53.2161 154.9432 0001994  34.3618  46.2913 15.08852492  3604,6917.842,95.437,541.087,538.328,0.0
49755.0,STARLINK-3210,PAYLOAD,2022-03-26 06:00:00,15.08830273,0.0001938,53.2162,153.4469,35.9147,56.2597,-0.00016564,-2.923e-05,0.0,0 STARLINK-3210,1 49755U 21115AH  22085.25001157 -.00002923  00000-0 -16564-3 0  9991,2 49755  53.2162 153.4469 0001938  35.9147  56.2597 15.08830273 18586,6917.91,95.438,541.116,538.434,0.0
49755.0,STARLINK-3210,PAYLOAD,2022-03-26 14:00:01,15.08805814,0.0002146,53.2162,151.9523,31.9041,71.8541,0.0025763,0.00040914,0.0,0 STARLINK-3210,1 49755U 21115AH  22085.58334491  .00040914  00000-0  25763-2 0  9997,2 49755  53.2162 151.9523 0002146  31.9041  71.8541 15.08805814  3579,6917.985,95.44,541.3340000000002,538.365,0.0
49755.0,STARLINK-3210,PAYLOAD,2022-03-26 22:00:00,15.08833001,0.0002017,53.2161,150.4544,33.7845,81.5476,-9.6755e-05,-1.827e-05,0.0,0 STARLINK-3210,1 49755U 21115AH  22085.91667824 -.00001827  00000-0 -96755-4 0  9996,2 49755  53.2161 150.4544 0002017  33.7845  81.5476 15.08833001  3590,6917.901999999999,95.438,541.1619999999998,538.371,0.0
49755.0,STARLINK-3210,PAYLOAD,2022-03-27 14:00:01,15.08825045,0.0002252,53.2163,147.4634,32.2731,106.2522,0.0031702,0.00050508,0.0,0 STARLINK-3210,1 49755U 21115AH  22086.58334491  .00050508  00000-0  31702-2 0  9998,2 49755  53.2163 147.4634 0002252  32.2731 106.2522 15.08825045 18780,6917.926,95.439,541.349,538.2330000000002,0.0
49755.0,STARLINK-3210,PAYLOAD,2022-03-27 22:00:01,15.08821174,0.0002263,53.2164,145.9654,33.7758,116.356,0.00065515,0.00010149,0.0,0 STARLINK-3210,1 49755U 21115AH  22086.91668981  .00010149  00000-0  65515-3 0  9996,2 49755  53.2164 145.9654 0002263  33.7758 116.3560 15.08821174 18832,6917.938,95.439,541.368,538.237,0.0
49755.0,STARLINK-3210,PAYLOAD,2022-03-28 14:00:01,15.08820673,0.0002537,53.2166,142.9744,32.8902,140.4215,0.0037131,0.00059273,0.0,0 STARLINK-3210,1 49755U 21115AH  22087.58335648  .00059273  00000-0  37131-2 0  9994,2 49755  53.2166 142.9744 0002537  32.8902 140.4215 15.08820673  3591,6917.939,95.439,541.56,538.049,0.0
49755.0,STARLINK-3210,PAYLOAD,2022-03-28 22:00:00,15.08850218,0.0002363,53.2168,141.4763,34.701,150.1477,0.00068766,0.00010676,0.0,0 STARLINK-3210,1 49755U 21115AH  22087.91667824  .00010676  00000-0  68766-3 0  9998,2 49755  53.2168 141.4763 0002363  34.7010 150.1477 15.08850218  3569,6917.849,95.437,541.349,538.0790000000002,0.0
49755.0,STARLINK-3210,PAYLOAD,2022-03-29 06:00:02,15.0887199,0.0002371,53.2169,139.9802,35.7486,160.7707,-0.0031183,-0.0004962,0.0,0 STARLINK-3210,1 49755U 21115AH  22088.25002315 -.00049620  00000-0 -31183-2 0  9999,2 49755  53.2169 139.9802 0002371  35.7486 160.7707 15.08871990 19035,6917.783,95.436,541.288,538.007,0.0
49755.0,STARLINK-3210,PAYLOAD,2022-03-29 14:00:01,15.0882996,0.0002548,53.2168,138.4852,31.2129,176.8602,0.0014641,0.00023084,0.0,0 STARLINK-3210,1 49755U 21115AH  22088.58334491  .00023084  00000-0  14641-2 0  9992,2 49755  53.2168 138.4852 0002548  31.2129 176.8602 15.08829960  3567,6917.911,95.438,541.539,538.013,0.0
49755.0,STARLINK-3210,PAYLOAD,2022-03-29 22:00:00,15.08819073,0.0002333,53.217,136.987,31.75800000000001,187.9162,0.0013076,0.00020572,0.0,0 STARLINK-3210,1 49755U 21115AH  22088.91667824  .00020572  00000-0  13076-2 0  9998,2 49755  53.2170 136.9870 0002333  31.7580 187.9162 15.08819073 19139,6917.944,95.439,541.423,538.195,0.0
49755.0,STARLINK-3210,PAYLOAD,2022-03-30 14:00:01,15.08823087,0.0002559,53.2168,133.9959,30.7204,212.1901,0.002855,0.00045423,0.0,0 STARLINK-3210,1 49755U 21115AH  22089.58335648  .00045423  00000-0  28550-2 0  9993,2 49755  53.2168 133.9959 0002559  30.7204 212.1901 15.08823087  3565,6917.932,95.439,541.567,538.0269999999998,0.0
49755.0,STARLINK-3210,PAYLOAD,2022-03-30 22:00:00,15.08828306,0.0002328,53.2169,132.4978,31.9737,222.4773,2.8326e-05,1.62e-06,0.0,0 STARLINK-3210,1 49755U 21115AH  22089.91667824  .00000162  00000-0  28326-4 0  9998,2 49755  53.2169 132.4978 0002328  31.9737 222.4773 15.08828306 19296,6917.916,95.438,541.3919999999998,538.1709999999998,0.0
49755.0,STARLINK-3210,PAYLOAD,2022-03-31 14:00:01,15.08818175,0.0002538,53.2164,129.5067,29.8945,247.7274,0.0027986,0.00044508,0.0,0 STARLINK-3210,1 49755U 21115AH  22090.58334491  .00044508  00000-0  27986-2 0  9995,2 49755  53.2164 129.5067 0002538  29.8945 247.7274 15.08818175  3592,6917.946999999999,95.439,541.568,538.056,0.0
49755.0,STARLINK-3210,PAYLOAD,2022-03-31 22:00:00,15.08826813,0.0002275,53.2164,128.0084,31.7038,257.5307,0.0010467,0.00016404,0.0,0 STARLINK-3210,1 49755U 21115AH  22090.91667824  .00016404  00000-0  10467-2 0  9991,2 49755  53.2164 128.0084 0002275  31.7038 257.5307 15.08826813  3569,6917.920999999999,95.438,541.36,538.212,0.0
49755.0,STARLINK-3210,PAYLOAD,2022-04-01 08:00:01,15.08851812,0.0002399,53.2162,126.1392,30.5778,3.1364,-0.0016546,-0.00026535,0.0,0 STARLINK-3210,1 49755U 21115AH  22091.33334491 -.00026535  00000-0 -16546-2 0  9991,2 49755  53.2162 126.1392 0002399  30.5778   3.1364 15.08851812 19509,6917.844,95.437,541.369,538.05,0.0
49755.0,STARLINK-3210,PAYLOAD,2022-04-01 14:00:01,15.08833752,0.0002452,53.2158,125.0173,27.965,284.4512,-3.1355e-05,-7.87e-06,0.0,0 STARLINK-3210,1 49755U 21115AH  22091.58334491 -.00000787  00000-0 -31355-4 0  9996,2 49755  53.2158 125.0173 0002452  27.9650 284.4512 15.08833752  3615,6917.899,95.438,541.461,538.068,0.0
49755.0,STARLINK-3210,PAYLOAD,2022-04-01 22:00:00,15.08808487,0.0002219,53.2157,123.519,30.8834,293.1332,0.0033614,0.0005357,0.0,0 STARLINK-3210,1 49755U 21115AH  22091.91667824  .00053570  00000-0  33614-2 0  9996,2 49755  53.2157 123.5190 0002219  30.8834 293.1332 15.08808487  3573,6917.977,95.44,541.377,538.307,0.0
